SL-4 R/B                
1 39679U 14021B   26002.03277273  .00018669  00000+0  43427-3 0  9995
2 39679  51.6089 301.9373 0100201 219.6161 139.7471 15.37204925646018
ALOS-2                  
1 39766U 14029A   26002.23580116  .00006958  00000+0  93784-3 0  9994
2 39766  97.9220 101.7900 0001354 102.9625 257.1738 14.79462426627045
YAOGAN-29               
1 41038U 15069A   26002.19759549  .00000546  00000+0  74068-4 0  9999
2 41038  98.0208  30.4341 0001451 148.3501 211.7799 14.82908446546022
ASTRO-H (HITOMI)        
1 41337U 16012A   26002.18992241  .00005608  00000+0  33530-3 0  9999
2 41337  31.0005  65.5192 0009580  24.2637 335.8450 15.09511830542173
HXMT (HUIYAN)           
1 42758U 17034A   26002.21072743  .00010203  00000+0  51846-3 0  9999
2 42758  43.0156  26.0107 0032187 176.8877 183.2176 15.16529715472449
CZ-2C R/B               
1 43521U 18054D   26002.19002976  .00165818  00000+0  87297-3 0  9991
2 43521  35.1338  41.7499 0012596 347.3005  12.7411 15.79103424418284
SAOCOM 1A               
1 43641U 18076A   26002.19513214 -.00000374  00000+0 -40490-4 0  9992
2 43641  97.8844 191.3187 0001338  83.2083 276.9282 14.82156709391517
H-2A R/B                
1 43682U 18084L   26002.12454829  .00029920  00000+0  78529-3 0  9994
2 43682  98.8762 205.4420 0026085 254.7629 105.0727 15.38257094395539
SAOCOM 1B               
1 46265U 20059A   26002.15885336  .00001257  00000+0  16444-3 0  9994
2 46265  97.8842 190.3829 0001478  84.3081 275.8301 14.82166530288896
CSS (TIANHE)            
1 48274U 21035A   26002.14205038  .00029116  00000+0  35128-3 0  9999
2 48274  41.4662 252.7694 0010192 202.3911 157.6483 15.60055172267210
CZ-2C R/B               
1 52794U 22058K   26001.99813251  .00039963  00000+0  68375-3 0  9992
2 52794  50.1924 300.1532 0043928 281.5502  78.0537 15.49721165199777
