CCSDS_OMM_VERS = 2.0
CREATION_DATE  = 
ORIGINATOR     = 

OBJECT_NAME    = SL-4 R/B
OBJECT_ID      = 2014-021B
CENTER_NAME    = EARTH
REF_FRAME      = TEME
TIME_SYSTEM    = UTC
MEAN_ELEMENT_THEORY = SGP/SGP4

EPOCH          = 2026-01-02T00:47:11.563872
MEAN_MOTION    = 15.37204925
ECCENTRICITY   = .0100201
INCLINATION    = 51.6089
RA_OF_ASC_NODE = 301.9373
ARG_OF_PERICENTER = 219.6161
MEAN_ANOMALY   = 139.7471

EPHEMERIS_TYPE = 0
CLASSIFICATION_TYPE = U
NORAD_CAT_ID   = 39679
ELEMENT_SET_NO = 999
REV_AT_EPOCH   = 64601
BSTAR          = .43427E-3
MEAN_MOTION_DOT = .18669E-3
MEAN_MOTION_DDOT = 0

CCSDS_OMM_VERS = 2.0
CREATION_DATE  = 
ORIGINATOR     = 

OBJECT_NAME    = ALOS-2
OBJECT_ID      = 2014-029A
CENTER_NAME    = EARTH
REF_FRAME      = TEME
TIME_SYSTEM    = UTC
MEAN_ELEMENT_THEORY = SGP/SGP4

EPOCH          = 2026-01-02T05:39:33.220224
MEAN_MOTION    = 14.79462426
ECCENTRICITY   = .0001354
INCLINATION    = 97.9220
RA_OF_ASC_NODE = 101.7900
ARG_OF_PERICENTER = 102.9625
MEAN_ANOMALY   = 257.1738

EPHEMERIS_TYPE = 0
CLASSIFICATION_TYPE = U
NORAD_CAT_ID   = 39766
ELEMENT_SET_NO = 999
REV_AT_EPOCH   = 62704
BSTAR          = .93784E-3
MEAN_MOTION_DOT = .6958E-4
MEAN_MOTION_DDOT = 0

CCSDS_OMM_VERS = 2.0
CREATION_DATE  = 
ORIGINATOR     = 

OBJECT_NAME    = YAOGAN-29
OBJECT_ID      = 2015-069A
CENTER_NAME    = EARTH
REF_FRAME      = TEME
TIME_SYSTEM    = UTC
MEAN_ELEMENT_THEORY = SGP/SGP4

EPOCH          = 2026-01-02T04:44:32.250336
MEAN_MOTION    = 14.82908446
ECCENTRICITY   = .0001451
INCLINATION    = 98.0208
RA_OF_ASC_NODE = 30.4341
ARG_OF_PERICENTER = 148.3501
MEAN_ANOMALY   = 211.7799

EPHEMERIS_TYPE = 0
CLASSIFICATION_TYPE = U
NORAD_CAT_ID   = 41038
ELEMENT_SET_NO = 999
REV_AT_EPOCH   = 54602
BSTAR          = .74068E-4
MEAN_MOTION_DOT = .546E-5
MEAN_MOTION_DDOT = 0

CCSDS_OMM_VERS = 2.0
CREATION_DATE  = 
ORIGINATOR     = 

OBJECT_NAME    = ASTRO-H (HITOMI)
OBJECT_ID      = 2016-012A
CENTER_NAME    = EARTH
REF_FRAME      = TEME
TIME_SYSTEM    = UTC
MEAN_ELEMENT_THEORY = SGP/SGP4

EPOCH          = 2026-01-02T04:33:29.296224
MEAN_MOTION    = 15.09511830
ECCENTRICITY   = .000958
INCLINATION    = 31.0005
RA_OF_ASC_NODE = 65.5192
ARG_OF_PERICENTER = 24.2637
MEAN_ANOMALY   = 335.8450

EPHEMERIS_TYPE = 0
CLASSIFICATION_TYPE = U
NORAD_CAT_ID   = 41337
ELEMENT_SET_NO = 999
REV_AT_EPOCH   = 54217
BSTAR          = .3353E-3
MEAN_MOTION_DOT = .5608E-4
MEAN_MOTION_DDOT = 0

CCSDS_OMM_VERS = 2.0
CREATION_DATE  = 
ORIGINATOR     = 

OBJECT_NAME    = HXMT (HUIYAN)
OBJECT_ID      = 2017-034A
CENTER_NAME    = EARTH
REF_FRAME      = TEME
TIME_SYSTEM    = UTC
MEAN_ELEMENT_THEORY = SGP/SGP4

EPOCH          = 2026-01-02T05:03:26.849952
MEAN_MOTION    = 15.16529715
ECCENTRICITY   = .0032187
INCLINATION    = 43.0156
RA_OF_ASC_NODE = 26.0107
ARG_OF_PERICENTER = 176.8877
MEAN_ANOMALY   = 183.2176

EPHEMERIS_TYPE = 0
CLASSIFICATION_TYPE = U
NORAD_CAT_ID   = 42758
ELEMENT_SET_NO = 999
REV_AT_EPOCH   = 47244
BSTAR          = .51846E-3
MEAN_MOTION_DOT = .10203E-3
MEAN_MOTION_DDOT = 0

CCSDS_OMM_VERS = 2.0
CREATION_DATE  = 
ORIGINATOR     = 

OBJECT_NAME    = CZ-2C R/B
OBJECT_ID      = 2018-054D
CENTER_NAME    = EARTH
REF_FRAME      = TEME
TIME_SYSTEM    = UTC
MEAN_ELEMENT_THEORY = SGP/SGP4

EPOCH          = 2026-01-02T04:33:38.571264
MEAN_MOTION    = 15.79103424
ECCENTRICITY   = .0012596
INCLINATION    = 35.1338
RA_OF_ASC_NODE = 41.7499
ARG_OF_PERICENTER = 347.3005
MEAN_ANOMALY   = 12.7411

EPHEMERIS_TYPE = 0
CLASSIFICATION_TYPE = U
NORAD_CAT_ID   = 43521
ELEMENT_SET_NO = 999
REV_AT_EPOCH   = 41828
BSTAR          = .87297E-3
MEAN_MOTION_DOT = .165818E-2
MEAN_MOTION_DDOT = 0

CCSDS_OMM_VERS = 2.0
CREATION_DATE  = 
ORIGINATOR     = 

OBJECT_NAME    = SAOCOM 1A
OBJECT_ID      = 2018-076A
CENTER_NAME    = EARTH
REF_FRAME      = TEME
TIME_SYSTEM    = UTC
MEAN_ELEMENT_THEORY = SGP/SGP4

EPOCH          = 2026-01-02T04:40:59.416896
MEAN_MOTION    = 14.82156709
ECCENTRICITY   = .0001338
INCLINATION    = 97.8844
RA_OF_ASC_NODE = 191.3187
ARG_OF_PERICENTER = 83.2083
MEAN_ANOMALY   = 276.9282

EPHEMERIS_TYPE = 0
CLASSIFICATION_TYPE = U
NORAD_CAT_ID   = 43641
ELEMENT_SET_NO = 999
REV_AT_EPOCH   = 39151
BSTAR          = -.4049E-4
MEAN_MOTION_DOT = -.374E-5
MEAN_MOTION_DDOT = 0

CCSDS_OMM_VERS = 2.0
CREATION_DATE  = 
ORIGINATOR     = 

OBJECT_NAME    = H-2A R/B
OBJECT_ID      = 2018-084L
CENTER_NAME    = EARTH
REF_FRAME      = TEME
TIME_SYSTEM    = UTC
MEAN_ELEMENT_THEORY = SGP/SGP4

EPOCH          = 2026-01-02T02:59:20.972256
MEAN_MOTION    = 15.38257094
ECCENTRICITY   = .0026085
INCLINATION    = 98.8762
RA_OF_ASC_NODE = 205.4420
ARG_OF_PERICENTER = 254.7629
MEAN_ANOMALY   = 105.0727

EPHEMERIS_TYPE = 0
CLASSIFICATION_TYPE = U
NORAD_CAT_ID   = 43682
ELEMENT_SET_NO = 999
REV_AT_EPOCH   = 39553
BSTAR          = .78529E-3
MEAN_MOTION_DOT = .2992E-3
MEAN_MOTION_DDOT = 0

CCSDS_OMM_VERS = 2.0
CREATION_DATE  = 
ORIGINATOR     = 

OBJECT_NAME    = SAOCOM 1B
OBJECT_ID      = 2020-059A
CENTER_NAME    = EARTH
REF_FRAME      = TEME
TIME_SYSTEM    = UTC
MEAN_ELEMENT_THEORY = SGP/SGP4

EPOCH          = 2026-01-02T03:48:44.930304
MEAN_MOTION    = 14.82166530
ECCENTRICITY   = .0001478
INCLINATION    = 97.8842
RA_OF_ASC_NODE = 190.3829
ARG_OF_PERICENTER = 84.3081
MEAN_ANOMALY   = 275.8301

EPHEMERIS_TYPE = 0
CLASSIFICATION_TYPE = U
NORAD_CAT_ID   = 46265
ELEMENT_SET_NO = 999
REV_AT_EPOCH   = 28889
BSTAR          = .16444E-3
MEAN_MOTION_DOT = .1257E-4
MEAN_MOTION_DDOT = 0

CCSDS_OMM_VERS = 2.0
CREATION_DATE  = 
ORIGINATOR     = 

OBJECT_NAME    = CSS (TIANHE)
OBJECT_ID      = 2021-035A
CENTER_NAME    = EARTH
REF_FRAME      = TEME
TIME_SYSTEM    = UTC
MEAN_ELEMENT_THEORY = SGP/SGP4

EPOCH          = 2026-01-02T03:24:33.152832
MEAN_MOTION    = 15.60055172
ECCENTRICITY   = .0010192
INCLINATION    = 41.4662
RA_OF_ASC_NODE = 252.7694
ARG_OF_PERICENTER = 202.3911
MEAN_ANOMALY   = 157.6483

EPHEMERIS_TYPE = 0
CLASSIFICATION_TYPE = U
NORAD_CAT_ID   = 48274
ELEMENT_SET_NO = 999
REV_AT_EPOCH   = 26721
BSTAR          = .35128E-3
MEAN_MOTION_DOT = .29116E-3
MEAN_MOTION_DDOT = 0

CCSDS_OMM_VERS = 2.0
CREATION_DATE  = 
ORIGINATOR     = 

OBJECT_NAME    = CZ-2C R/B
OBJECT_ID      = 2022-058K
CENTER_NAME    = EARTH
REF_FRAME      = TEME
TIME_SYSTEM    = UTC
MEAN_ELEMENT_THEORY = SGP/SGP4

EPOCH          = 2026-01-01T23:57:18.648864
MEAN_MOTION    = 15.49721165
ECCENTRICITY   = .0043928
INCLINATION    = 50.1924
RA_OF_ASC_NODE = 300.1532
ARG_OF_PERICENTER = 281.5502
MEAN_ANOMALY   = 78.0537

EPHEMERIS_TYPE = 0
CLASSIFICATION_TYPE = U
NORAD_CAT_ID   = 52794
ELEMENT_SET_NO = 999
REV_AT_EPOCH   = 19977
BSTAR          = .68375E-3
MEAN_MOTION_DOT = .39963E-3
MEAN_MOTION_DDOT = 0

